CCSDS_OMM_VERS = 2.0
CREATION_DATE  = 
ORIGINATOR     = 

OBJECT_NAME    = STARLINK-36889
OBJECT_ID      = 2026-039W
CENTER_NAME    = EARTH
REF_FRAME      = TEME
TIME_SYSTEM    = UTC
MEAN_ELEMENT_THEORY = SGP/SGP4

EPOCH          = 2026-03-20T12:00:00.999648
MEAN_MOTION    = 15.52074251
ECCENTRICITY   = .00006456
INCLINATION    = 42.9999
RA_OF_ASC_NODE = 349.4297
ARG_OF_PERICENTER = 265.7868
MEAN_ANOMALY   = 281.5908

EPHEMERIS_TYPE = 0
CLASSIFICATION_TYPE = U
NORAD_CAT_ID   = 68006
ELEMENT_SET_NO = 999
REV_AT_EPOCH   = 461
BSTAR          = -.33902278E-1
MEAN_MOTION_DOT = -.1854616E-1
MEAN_MOTION_DDOT = 0

CCSDS_OMM_VERS = 2.0
CREATION_DATE  = 
ORIGINATOR     = 

OBJECT_NAME    = STARLINK-36592
OBJECT_ID      = 2026-039X
CENTER_NAME    = EARTH
REF_FRAME      = TEME
TIME_SYSTEM    = UTC
MEAN_ELEMENT_THEORY = SGP/SGP4

EPOCH          = 2026-03-20T12:00:00.999648
MEAN_MOTION    = 15.56452270
ECCENTRICITY   = .00012226
INCLINATION    = 43.0000
RA_OF_ASC_NODE = 349.1599
ARG_OF_PERICENTER = 256.4817
MEAN_ANOMALY   = 39.8526

EPHEMERIS_TYPE = 0
CLASSIFICATION_TYPE = U
NORAD_CAT_ID   = 68007
ELEMENT_SET_NO = 999
REV_AT_EPOCH   = 461
BSTAR          = -.29993294E-1
MEAN_MOTION_DOT = -.1920635E-1
MEAN_MOTION_DDOT = 0

CCSDS_OMM_VERS = 2.0
CREATION_DATE  = 
ORIGINATOR     = 

OBJECT_NAME    = STARLINK-36911
OBJECT_ID      = 2026-039Y
CENTER_NAME    = EARTH
REF_FRAME      = TEME
TIME_SYSTEM    = UTC
MEAN_ELEMENT_THEORY = SGP/SGP4

EPOCH          = 2026-03-20T12:00:00.999648
MEAN_MOTION    = 15.54946886
ECCENTRICITY   = .00010871
INCLINATION    = 42.9996
RA_OF_ASC_NODE = 349.2334
ARG_OF_PERICENTER = 251.7419
MEAN_ANOMALY   = 14.8249

EPHEMERIS_TYPE = 0
CLASSIFICATION_TYPE = U
NORAD_CAT_ID   = 68008
ELEMENT_SET_NO = 999
REV_AT_EPOCH   = 461
BSTAR          = -.31569184E-1
MEAN_MOTION_DOT = -.1911922E-1
MEAN_MOTION_DDOT = 0

CCSDS_OMM_VERS = 2.0
CREATION_DATE  = 
ORIGINATOR     = 

OBJECT_NAME    = STARLINK-36956
OBJECT_ID      = 2026-039Z
CENTER_NAME    = EARTH
REF_FRAME      = TEME
TIME_SYSTEM    = UTC
MEAN_ELEMENT_THEORY = SGP/SGP4

EPOCH          = 2026-03-20T12:00:00.999648
MEAN_MOTION    = 15.53772911
ECCENTRICITY   = .00010766
INCLINATION    = 42.9998
RA_OF_ASC_NODE = 349.2906
ARG_OF_PERICENTER = 249.6743
MEAN_ANOMALY   = 353.7573

EPHEMERIS_TYPE = 0
CLASSIFICATION_TYPE = U
NORAD_CAT_ID   = 68009
ELEMENT_SET_NO = 999
REV_AT_EPOCH   = 461
BSTAR          = -.3213142E-1
MEAN_MOTION_DOT = -.1868907E-1
MEAN_MOTION_DDOT = 0

CCSDS_OMM_VERS = 2.0
CREATION_DATE  = 
ORIGINATOR     = 

OBJECT_NAME    = STARLINK-36953
OBJECT_ID      = 2026-039AA
CENTER_NAME    = EARTH
REF_FRAME      = TEME
TIME_SYSTEM    = UTC
MEAN_ELEMENT_THEORY = SGP/SGP4

EPOCH          = 2026-03-20T12:00:00.999648
MEAN_MOTION    = 15.61249073
ECCENTRICITY   = .00016052
INCLINATION    = 43.0001
RA_OF_ASC_NODE = 348.8803
ARG_OF_PERICENTER = 262.2571
MEAN_ANOMALY   = 146.5315

EPHEMERIS_TYPE = 0
CLASSIFICATION_TYPE = U
NORAD_CAT_ID   = 68010
ELEMENT_SET_NO = 999
REV_AT_EPOCH   = 461
BSTAR          = -.25551676E-1
MEAN_MOTION_DOT = -.1961476E-1
MEAN_MOTION_DDOT = 0

CCSDS_OMM_VERS = 2.0
CREATION_DATE  = 
ORIGINATOR     = 

OBJECT_NAME    = STARLINK-36991
OBJECT_ID      = 2026-039AB
CENTER_NAME    = EARTH
REF_FRAME      = TEME
TIME_SYSTEM    = UTC
MEAN_ELEMENT_THEORY = SGP/SGP4

EPOCH          = 2026-03-20T12:00:00.999648
MEAN_MOTION    = 15.50662560
ECCENTRICITY   = .00023734
INCLINATION    = 42.9999
RA_OF_ASC_NODE = 349.9559
ARG_OF_PERICENTER = 251.2335
MEAN_ANOMALY   = 82.2271

EPHEMERIS_TYPE = 0
CLASSIFICATION_TYPE = U
NORAD_CAT_ID   = 68011
ELEMENT_SET_NO = 999
REV_AT_EPOCH   = 461
BSTAR          = -.17533636E-2
MEAN_MOTION_DOT = -.102186E-2
MEAN_MOTION_DDOT = 0

CCSDS_OMM_VERS = 2.0
CREATION_DATE  = 
ORIGINATOR     = 

OBJECT_NAME    = STARLINK-36936
OBJECT_ID      = 2026-039AC
CENTER_NAME    = EARTH
REF_FRAME      = TEME
TIME_SYSTEM    = UTC
MEAN_ELEMENT_THEORY = SGP/SGP4

EPOCH          = 2026-03-20T12:00:00.999648
MEAN_MOTION    = 15.53545125
ECCENTRICITY   = .00011426
INCLINATION    = 42.9999
RA_OF_ASC_NODE = 349.2497
ARG_OF_PERICENTER = 249.8597
MEAN_ANOMALY   = 9.5940

EPHEMERIS_TYPE = 0
CLASSIFICATION_TYPE = U
NORAD_CAT_ID   = 68012
ELEMENT_SET_NO = 999
REV_AT_EPOCH   = 461
BSTAR          = -.32039204E-1
MEAN_MOTION_DOT = -.1850444E-1
MEAN_MOTION_DDOT = 0

CCSDS_OMM_VERS = 2.0
CREATION_DATE  = 
ORIGINATOR     = 

OBJECT_NAME    = STARLINK-36967
OBJECT_ID      = 2026-039AD
CENTER_NAME    = EARTH
REF_FRAME      = TEME
TIME_SYSTEM    = UTC
MEAN_ELEMENT_THEORY = SGP/SGP4

EPOCH          = 2026-03-20T12:00:00.999648
MEAN_MOTION    = 15.50531754
ECCENTRICITY   = .00014418
INCLINATION    = 43.0002
RA_OF_ASC_NODE = 349.8830
ARG_OF_PERICENTER = 266.7086
MEAN_ANOMALY   = 96.7657

EPHEMERIS_TYPE = 0
CLASSIFICATION_TYPE = U
NORAD_CAT_ID   = 68013
ELEMENT_SET_NO = 999
REV_AT_EPOCH   = 461
BSTAR          = .72287008E-3
MEAN_MOTION_DOT = .42223E-3
MEAN_MOTION_DDOT = 0

CCSDS_OMM_VERS = 2.0
CREATION_DATE  = 
ORIGINATOR     = 

OBJECT_NAME    = STARLINK-36985
OBJECT_ID      = 2026-039AE
CENTER_NAME    = EARTH
REF_FRAME      = TEME
TIME_SYSTEM    = UTC
MEAN_ELEMENT_THEORY = SGP/SGP4

EPOCH          = 2026-03-20T12:00:00.999648
MEAN_MOTION    = 15.61735670
ECCENTRICITY   = .00016864
INCLINATION    = 43.0001
RA_OF_ASC_NODE = 348.8365
ARG_OF_PERICENTER = 264.9437
MEAN_ANOMALY   = 161.0543

EPHEMERIS_TYPE = 0
CLASSIFICATION_TYPE = U
NORAD_CAT_ID   = 68014
ELEMENT_SET_NO = 999
REV_AT_EPOCH   = 461
BSTAR          = -.25036672E-1
MEAN_MOTION_DOT = -.1959315E-1
MEAN_MOTION_DDOT = 0

CCSDS_OMM_VERS = 2.0
CREATION_DATE  = 
ORIGINATOR     = 

OBJECT_NAME    = STARLINK-36335
OBJECT_ID      = 2026-040A
CENTER_NAME    = EARTH
REF_FRAME      = TEME
TIME_SYSTEM    = UTC
MEAN_ELEMENT_THEORY = SGP/SGP4

EPOCH          = 2026-03-20T12:00:00.999648
MEAN_MOTION    = 15.76954625
ECCENTRICITY   = .00017402
INCLINATION    = 97.2821
RA_OF_ASC_NODE = 28.4730
ARG_OF_PERICENTER = 87.4247
MEAN_ANOMALY   = 24.0667

EPHEMERIS_TYPE = 0
CLASSIFICATION_TYPE = U
NORAD_CAT_ID   = 68015
ELEMENT_SET_NO = 999
REV_AT_EPOCH   = 411
BSTAR          = -.13606879E-1
MEAN_MOTION_DOT = -.1910409E-1
MEAN_MOTION_DDOT = 0

CCSDS_OMM_VERS = 2.0
CREATION_DATE  = 
ORIGINATOR     = 

OBJECT_NAME    = STARLINK-36923
OBJECT_ID      = 2026-040B
CENTER_NAME    = EARTH
REF_FRAME      = TEME
TIME_SYSTEM    = UTC
MEAN_ELEMENT_THEORY = SGP/SGP4

EPOCH          = 2026-03-20T12:00:00.999648
MEAN_MOTION    = 15.76204143
ECCENTRICITY   = .00015075
INCLINATION    = 97.2825
RA_OF_ASC_NODE = 28.4770
ARG_OF_PERICENTER = 90.0974
MEAN_ANOMALY   = 28.1035

EPHEMERIS_TYPE = 0
CLASSIFICATION_TYPE = U
NORAD_CAT_ID   = 68016
ELEMENT_SET_NO = 999
REV_AT_EPOCH   = 416
BSTAR          = -.9494586E-2
MEAN_MOTION_DOT = -.1324539E-1
MEAN_MOTION_DDOT = 0

CCSDS_OMM_VERS = 2.0
CREATION_DATE  = 
ORIGINATOR     = 

OBJECT_NAME    = STARLINK-36568
OBJECT_ID      = 2026-040C
CENTER_NAME    = EARTH
REF_FRAME      = TEME
TIME_SYSTEM    = UTC
MEAN_ELEMENT_THEORY = SGP/SGP4

EPOCH          = 2026-03-20T12:00:00.999648
MEAN_MOTION    = 15.76130871
ECCENTRICITY   = .00015206
INCLINATION    = 97.2823
RA_OF_ASC_NODE = 28.4782
ARG_OF_PERICENTER = 90.6491
MEAN_ANOMALY   = 31.6134

EPHEMERIS_TYPE = 0
CLASSIFICATION_TYPE = U
NORAD_CAT_ID   = 68017
ELEMENT_SET_NO = 999
REV_AT_EPOCH   = 416
BSTAR          = -.89989556E-2
MEAN_MOTION_DOT = -.1236933E-1
MEAN_MOTION_DDOT = 0

